[{"OBJECT_NAME":"HERMES-3","OBJECT_ID":"2025-052BR","EPOCH":"2026-03-09T22:30:01.073952","MEAN_MOTION":15.30039786,"ECCENTRICITY":0.00079928,"INCLINATION":97.3987,"RA_OF_ASC_NODE":324.6131,"ARG_OF_PERICENTER":112.9583,"MEAN_ANOMALY":247.2502,"EPHEMERIS_TYPE":0,"CLASSIFICATION_TYPE":"U","NORAD_CAT_ID":63835,"ELEMENT_SET_NO":999,"REV_AT_EPOCH":5486,"BSTAR":0.0006995793,"MEAN_MOTION_DOT":0.00020316,"MEAN_MOTION_DDOT":0},{"OBJECT_NAME":"STARLINK-35795","OBJECT_ID":"2025-254X","EPOCH":"2026-03-09T22:00:01.999584","MEAN_MOTION":15.30165131,"ECCENTRICITY":0.00011963,"INCLINATION":53.1563,"RA_OF_ASC_NODE":229.1693,"ARG_OF_PERICENTER":79.1171,"MEAN_ANOMALY":194.0696,"EPHEMERIS_TYPE":0,"CLASSIFICATION_TYPE":"U","NORAD_CAT_ID":66369,"ELEMENT_SET_NO":999,"REV_AT_EPOCH":586,"BSTAR":0.0021030345,"MEAN_MOTION_DOT":0.00062383,"MEAN_MOTION_DDOT":0}]
